IRIDIUM 106             
1 41917U 17003A   24278.85335840  .00000038  00000+0  63908-5 0  9993
2 41917  86.4019 347.7717 0002366 102.4053 257.7407 14.34216679404294
IRIDIUM 103             
1 41918U 17003B   24278.56158991  .00000446  00000+0  15233-3 0  9991
2 41918  86.4018 347.7949 0001784 111.7318 248.4068 14.34215810404275
IRIDIUM 109             
1 41919U 17003C   24278.56794010  .00000266  00000+0  87970-4 0  9998
2 41919  86.4021 347.8417 0001739  89.6817 270.4578 14.34216494404245
IRIDIUM 102             
1 41920U 17003D   24278.74553104  .00000123  00000+0  37020-4 0  9990
2 41920  86.4018 347.7043 0002137  92.5105 267.6336 14.34217279404357
IRIDIUM 105             
1 41921U 17003E   24278.15812483  .00001044  00000+0  36554-3 0  9997
2 41921  86.3960 316.3913 0002187  95.3125 264.8320 14.34221537406120
IRIDIUM 104             
1 41922U 17003F   24278.47913793  .00000121  00000+0  36073-4 0  9991
2 41922  86.4021 347.8492 0001775  94.6159 265.5240 14.34216094404301
IRIDIUM 114             
1 41923U 17003G   24278.76456241  .00000620  00000+0  21427-3 0  9994
2 41923  86.4020 347.7152 0002186 100.3413 259.8029 14.34219220404347
IRIDIUM 108             
1 41924U 17003H   24278.51377213  .00000966  00000+0  33785-3 0  9992
2 41924  86.3956 316.1603 0002426  95.9512 264.1961 14.34222817406164
